NORAD_CAT_ID,OBJECT_NAME,OBJECT_TYPE,EPOCH,MEAN_MOTION,ECCENTRICITY,INCLINATION,RA_OF_ASC_NODE,ARG_OF_PERICENTER,MEAN_ANOMALY,BSTAR,MEAN_MOTION_DOT,MEAN_MOTION_DDOT,TLE_LINE0,TLE_LINE1,TLE_LINE2,SEMIMAJOR_AXIS,PERIOD,APOGEE,PERIGEE,DECAYED
53014.0,STARLINK-4183,PAYLOAD,2022-10-13 22:00:00,15.08834927,0.0001435,53.2175,263.138,72.4174,310.5468,0.00023908,3.519e-05,0.0,0 STARLINK-4183,1 53014U 22076AE  22286.91667824  .00003519  00000-0  23908-3 0  9996,2 53014  53.2175 263.1380 0001435  72.4174 310.5468 15.08834927  1307,6917.896,95.438,540.754,538.768,0.0
53014.0,STARLINK-4183,PAYLOAD,2022-10-14 14:00:01,15.08819309,0.0001443999999999,53.2166,260.1477,69.3285,336.8280000000001,0.0015857999999999,0.00025026,0.0,0 STARLINK-4183,1 53014U 22076AE  22287.58334491  .00025026  00000-0  15858-2 0  9992,2 53014  53.2166 260.1477 0001444  69.3285 336.8280 15.08819309  1309,6917.944,95.439,540.808,538.81,0.0
53014.0,STARLINK-4183,PAYLOAD,2022-10-14 20:00:01,15.08834696,0.0001385,53.2173,259.0228,74.3561,250.4872,0.00019946,2.887e-05,0.0,0 STARLINK-4183,1 53014U 22076AE  22287.83334491  .00002887  00000-0  19946-3 0  9993,2 53014  53.2173 259.0228 0001385  74.3561 250.4872 15.08834696  1309,6917.897,95.438,540.72,538.803,0.0
53014.0,STARLINK-4183,PAYLOAD,2022-10-15 06:00:00,15.08838944,0.0001474,53.2175,257.1543,71.2583,358.0724,-0.00026323,-4.475e-05,0.0,0 STARLINK-4183,1 53014U 22076AE  22288.25001157 -.00004475  00000-0 -26323-3 0  9994,2 53014  53.2175 257.1543 0001474  71.2583 358.0724 15.08838944 16036,6917.884,95.438,540.768,538.729,0.0
53014.0,STARLINK-4183,PAYLOAD,2022-10-15 14:00:01,15.08849424,0.0001469,53.2139,255.6646,67.2707,13.6856,-0.0020442999999999,-0.00032684,0.0,0 STARLINK-4183,1 53014U 22076AE  22288.58334491 -.00032684  00000-0 -20443-2 0  9999,2 53014  53.2139 255.6646 0001469  67.2707  13.6856 15.08849424  1309,6917.852,95.437,540.7330000000002,538.7,0.0
53014.0,STARLINK-4183,PAYLOAD,2022-10-15 22:00:01,15.08833675,0.0001520999999999,53.214,254.1674,73.7272,18.8703,-0.00094581,-0.00015306,0.0,0 STARLINK-4183,1 53014U 22076AE  22288.91668981 -.00015306  00000-0 -94581-3 0  9997,2 53014  53.2140 254.1674 0001521  73.7272  18.8703 15.08833675  1303,6917.9,95.438,540.817,538.7130000000002,0.0
53014.0,STARLINK-4183,PAYLOAD,2022-10-16 14:00:01,15.08830593,0.0001508,53.2139,251.1755,67.5693,48.1162,-0.0019658,-0.0003143,0.0,0 STARLINK-4183,1 53014U 22076AE  22289.58334491 -.00031430  00000-0 -19658-2 0  9994,2 53014  53.2139 251.1755 0001508  67.5693  48.1162 15.08830593 16241,6917.909000000002,95.438,540.817,538.731,0.0
53014.0,STARLINK-4183,PAYLOAD,2022-10-16 22:00:00,15.08821555,0.0001518,53.2143,249.677,74.3768,52.8763,0.0017553,0.00027744,0.0,0 STARLINK-4183,1 53014U 22076AE  22289.91667824  .00027744  00000-0  17553-2 0  9993,2 53014  53.2143 249.6770 0001518  74.3768  52.8763 15.08821555  1303,6917.937,95.439,540.852,538.752,0.0
53014.0,STARLINK-4183,PAYLOAD,2022-10-17 06:00:00,15.08820595,0.0001638,53.2145,248.183,64.7524,74.0813,0.0022806,0.00036175,0.0,0 STARLINK-4183,1 53014U 22076AE  22290.25001157  .00036175  00000-0  22806-2 0  9998,2 53014  53.2145 248.1830 0001638  64.7524  74.0813 15.08820595 16347,6917.94,95.439,540.938,538.672,0.0
53014.0,STARLINK-4183,PAYLOAD,2022-10-17 14:00:01,15.08863783,0.0001517,53.2147,246.6851,67.9019,82.5241,-0.00053969,-8.873e-05,0.0,0 STARLINK-4183,1 53014U 22076AE  22290.58334491 -.00008873  00000-0 -53969-3 0  9995,2 53014  53.2147 246.6851 0001517  67.9019  82.5241 15.08863783  1300,6917.808000000001,95.436,540.722,538.623,0.0
53014.0,STARLINK-4183,PAYLOAD,2022-10-17 22:00:00,15.08877752,0.0001471,53.2147,245.1877,74.1807,87.8655,-0.0018753,-0.0003003999999999,0.0,0 STARLINK-4183,1 53014U 22076AE  22290.91667824 -.00030040  00000-0 -18753-2 0  9993,2 53014  53.2147 245.1877 0001471  74.1807  87.8655 15.08877752  1304,6917.765,95.435,540.648,538.612,0.0
53014.0,STARLINK-4183,PAYLOAD,2022-10-18 08:00:01,15.0881492,0.0001476,53.2143,243.3205,60.1844,206.3757,0.0017071999999999,0.00026968,0.0,0 STARLINK-4183,1 53014U 22076AE  22291.33334491  .00026968  00000-0  17072-2 0  9996,2 53014  53.2143 243.3205 0001476  60.1844 206.3757 15.08814920 16503,6917.956999999999,95.439,540.8430000000002,538.8009999999998,0.0
53014.0,STARLINK-4183,PAYLOAD,2022-10-18 14:00:01,15.08833799,0.0001412,53.2144,242.1967,66.7849,118.4575,-0.0020936,-0.00033447,0.0,0 STARLINK-4183,1 53014U 22076AE  22291.58334491 -.00033447  00000-0 -20936-2 0  9998,2 53014  53.2144 242.1967 0001412  66.7849 118.4575 15.08833799  1301,6917.899,95.438,540.741,538.788,0.0
53014.0,STARLINK-4183,PAYLOAD,2022-10-18 22:00:00,15.08826512,0.0001476999999999,53.2148,240.7001,72.4194,124.3894,0.00063346,9.804e-05,0.0,0 STARLINK-4183,1 53014U 22076AE  22291.91667824  .00009804  00000-0  63346-3 0  9995,2 53014  53.2148 240.7001 0001477  72.4194 124.3894 15.08826512  1301,6917.922,95.438,540.808,538.765,0.0
53014.0,STARLINK-4183,PAYLOAD,2022-10-19 14:00:01,15.08852753,0.0001462,53.2146,237.7073,69.83800000000001,150.1473,-5.3145000000000005e-06,-3.73e-06,0.0,0 STARLINK-4183,1 53014U 22076AE  22292.58334491 -.00000373  00000-0 -53145-5 0  9992,2 53014  53.2146 237.7073 0001462  69.8380 150.1473 15.08852753  1301,6917.840999999999,95.437,540.7180000000002,538.695,0.0
53014.0,STARLINK-4183,PAYLOAD,2022-10-19 22:00:00,15.08861505,0.0001469,53.2162,236.2068,71.9316,159.6498,-0.00011065,-2.05e-05,0.0,0 STARLINK-4183,1 53014U 22076AE  22292.91667824 -.00002050  00000-0 -11065-3 0  9995,2 53014  53.2162 236.2068 0001469  71.9316 159.6498 15.08861505  1303,6917.815,95.436,540.696,538.663,0.0
53014.0,STARLINK-4183,PAYLOAD,2022-10-20 08:00:01,15.08846692,0.0001571,53.2143,234.3417,65.7636,270.3464,8.7454e-06,-1.49e-06,0.0,0 STARLINK-4183,1 53014U 22076AE  22293.33334491 -.00000149  00000-0  87454-5 0  9996,2 53014  53.2143 234.3417 0001571  65.7636 270.3464 15.08846692 16804,6917.86,95.437,540.812,538.638,0.0
53014.0,STARLINK-4183,PAYLOAD,2022-10-20 14:00:01,15.08836066,0.0001452,53.2151,233.2168,72.6622,182.1579,-0.00050308,-8.285e-05,0.0,0 STARLINK-4183,1 53014U 22076AE  22293.58334491 -.00008285  00000-0 -50308-3 0  9999,2 53014  53.2151 233.2168 0001452  72.6622 182.1579 15.08836066  1304,6917.892,95.438,540.762,538.753,0.0
53014.0,STARLINK-4183,PAYLOAD,2022-10-20 22:00:00,15.08850414,0.0001434,53.215,231.7206,77.3443,189.0496,-0.00045444,-7.515e-05,0.0,0 STARLINK-4183,1 53014U 22076AE  22293.91667824 -.00007515  00000-0 -45444-3 0  9995,2 53014  53.2150 231.7206 0001434  77.3443 189.0496 15.08850414  1309,6917.849,95.437,540.706,538.722,0.0
53014.0,STARLINK-4183,PAYLOAD,2022-10-21 14:00:01,15.08829198,0.0001327,53.2149,228.7274,73.543,216.0492,0.00097286,0.00015224,0.0,0 STARLINK-4183,1 53014U 22076AE  22294.58334491  .00015224  00000-0  97286-3 0  9995,2 53014  53.2149 228.7274 0001327  73.5430 216.0492 15.08829198 16996,6917.913000000001,95.438,540.696,538.86,0.0
53014.0,STARLINK-4183,PAYLOAD,2022-10-21 22:00:00,15.08864731,0.0001339,53.2144,227.2324,75.5765,225.5907,-0.0020032,-0.00032049,0.0,0 STARLINK-4183,1 53014U 22076AE  22294.91667824 -.00032049  00000-0 -20032-2 0  9991,2 53014  53.2144 227.2324 0001339  75.5765 225.5907 15.08864731  1304,6917.805,95.436,540.596,538.744,0.0
53014.0,STARLINK-4183,PAYLOAD,2022-10-22 14:00:01,15.08831032,0.0001274999999999,53.2143,224.2392,72.6314,251.7418,0.0011629,0.00018263,0.0,0 STARLINK-4183,1 53014U 22076AE  22295.58334491  .00018263  00000-0  11629-2 0  9998,2 53014  53.2143 224.2392 0001275  72.6314 251.7418 15.08831032 17147,6917.908,95.438,540.655,538.891,0.0
53014.0,STARLINK-4183,PAYLOAD,2022-10-22 22:00:00,15.08866412,0.0001402,53.2144,222.7432,74.8942,261.0713,-0.0024659,-0.00039347,0.0,0 STARLINK-4183,1 53014U 22076AE  22295.91667824 -.00039347  00000-0 -24659-2 0  9999,2 53014  53.2144 222.7432 0001402  74.8942 261.0713 15.08866412  1302,6917.8,95.436,540.635,538.695,0.0
53014.0,STARLINK-4183,PAYLOAD,2022-10-23 14:00:01,15.08850758,0.0001347,53.2145,219.7498,72.5669,286.6312,-0.0004756999999999,-7.853e-05,0.0,0 STARLINK-4183,1 53014U 22076AE  22296.58334491 -.00007853  00000-0 -47570-3 0  9999,2 53014  53.2145 219.7498 0001347  72.5669 286.6312 15.08850758  1304,6917.848000000001,95.437,540.644,538.781,0.0
53014.0,STARLINK-4183,PAYLOAD,2022-10-23 22:00:00,15.08874877,0.000138,53.2146,218.2539,71.1169,299.6745,-0.0037623,-0.00059725,0.0,0 STARLINK-4183,1 53014U 22076AE  22296.91667824 -.00059725  00000-0 -37623-2 0  9997,2 53014  53.2146 218.2539 0001380  71.1169 299.6745 15.08874877  1304,6917.774,95.435,540.5930000000002,538.684,0.0
53014.0,STARLINK-4183,PAYLOAD,2022-10-24 14:00:01,15.08771514,0.0001498,53.2149,215.2605,72.0457,321.9325,0.0025843,0.00041004,0.0,0 STARLINK-4183,1 53014U 22076AE  22297.58334491  .00041004  00000-0  25843-2 0  9992,2 53014  53.2149 215.2605 0001498  72.0457 321.9325 15.08771514  1305,6918.09,95.442,540.991,538.918,0.0
53014.0,STARLINK-4183,PAYLOAD,2022-10-24 22:00:00,15.08817583,0.0001605,53.2151,213.7649,70.869,334.6351,-0.0011145,-0.00017971,0.0,0 STARLINK-4183,1 53014U 22076AE  22297.91667824 -.00017971  00000-0 -11145-2 0  9996,2 53014  53.2151 213.7649 0001605  70.8690 334.6351 15.08817583  1301,6917.949000000001,95.439,540.924,538.7040000000002,0.0
53014.0,STARLINK-4183,PAYLOAD,2022-10-25 00:00:00,15.08812464,0.000164,53.2149,213.3913,68.4792,69.9169,-0.00072658,-0.00011824,0.0,0 STARLINK-4183,1 53014U 22076AE  22298.00001157 -.00011824  00000-0 -72658-3 0  9996,2 53014  53.2149 213.3913 0001640  68.4792  69.9169 15.08812464 17511,6917.965,95.439,540.964,538.695,0.0
53014.0,STARLINK-4183,PAYLOAD,2022-10-25 14:00:01,15.08801318,0.0001561,53.2153,210.7715,71.87,356.764,0.0027861,0.00044285,0.0,0 STARLINK-4183,1 53014U 22076AE  22298.58334491  .00044285  00000-0  27861-2 0  9999,2 53014  53.2153 210.7715 0001561  71.8700 356.7640 15.08801318  1303,6917.999,95.44,540.944,538.784,0.0
